[{"OBJECT_NAME":"STARLINK-37250","OBJECT_ID":"2026-073H","EPOCH":"2026-04-24T14:07:50.452896","MEAN_MOTION":15.8090847,"ECCENTRICITY":0.00013687,"INCLINATION":97.2843,"RA_OF_ASC_NODE":312.6525,"ARG_OF_PERICENTER":96.2307,"MEAN_ANOMALY":263.9117,"EPHEMERIS_TYPE":0,"CLASSIFICATION_TYPE":"U","NORAD_CAT_ID":68609,"ELEMENT_SET_NO":999,"REV_AT_EPOCH":278,"BSTAR":0.0011461409,"MEAN_MOTION_DOT":0.00226136,"MEAN_MOTION_DDOT":0},{"OBJECT_NAME":"STARLINK-37105","OBJECT_ID":"2026-073J","EPOCH":"2026-04-25T00:00:02.999808","MEAN_MOTION":15.75129443,"ECCENTRICITY":0.0001528,"INCLINATION":97.2853,"RA_OF_ASC_NODE":313.0483,"ARG_OF_PERICENTER":101.6012,"MEAN_ANOMALY":342.9001,"EPHEMERIS_TYPE":0,"CLASSIFICATION_TYPE":"U","NORAD_CAT_ID":68610,"ELEMENT_SET_NO":999,"REV_AT_EPOCH":389,"BSTAR":0.00016688835,"MEAN_MOTION_DOT":0.0002477,"MEAN_MOTION_DDOT":0},{"OBJECT_NAME":"STARLINK-37177","OBJECT_ID":"2026-073K","EPOCH":"2026-04-24T17:07:58.749888","MEAN_MOTION":15.80903267,"ECCENTRICITY":7.875e-5,"INCLINATION":97.2844,"RA_OF_ASC_NODE":312.7888,"ARG_OF_PERICENTER":81.6141,"MEAN_ANOMALY":278.5217,"EPHEMERIS_TYPE":0,"CLASSIFICATION_TYPE":"U","NORAD_CAT_ID":68611,"ELEMENT_SET_NO":999,"REV_AT_EPOCH":280,"BSTAR":0.00095424628,"MEAN_MOTION_DOT":0.00187364,"MEAN_MOTION_DDOT":0},{"OBJECT_NAME":"STARLINK-36386","OBJECT_ID":"2026-073L","EPOCH":"2026-04-24T12:33:26.593344","MEAN_MOTION":15.80891277,"ECCENTRICITY":0.00012895,"INCLINATION":97.2842,"RA_OF_ASC_NODE":312.5888,"ARG_OF_PERICENTER":78.0264,"MEAN_ANOMALY":282.1148,"EPHEMERIS_TYPE":0,"CLASSIFICATION_TYPE":"U","NORAD_CAT_ID":68612,"ELEMENT_SET_NO":999,"REV_AT_EPOCH":277,"BSTAR":0.0011278067,"MEAN_MOTION_DOT":0.00222242,"MEAN_MOTION_DDOT":0},{"OBJECT_NAME":"STARLINK-36187","OBJECT_ID":"2026-073M","EPOCH":"2026-04-24T17:05:49.015968","MEAN_MOTION":15.80925351,"ECCENTRICITY":0.00012577,"INCLINATION":97.2842,"RA_OF_ASC_NODE":312.7906,"ARG_OF_PERICENTER":85.0488,"MEAN_ANOMALY":275.0924,"EPHEMERIS_TYPE":0,"CLASSIFICATION_TYPE":"U","NORAD_CAT_ID":68613,"ELEMENT_SET_NO":999,"REV_AT_EPOCH":280,"BSTAR":0.0013075819,"MEAN_MOTION_DOT":0.00259198,"MEAN_MOTION_DDOT":0},{"OBJECT_NAME":"STARLINK-37170","OBJECT_ID":"2026-073N","EPOCH":"2026-04-25T20:00:01.000224","MEAN_MOTION":15.75129574,"ECCENTRICITY":0.0001193,"INCLINATION":97.2846,"RA_OF_ASC_NODE":313.9693,"ARG_OF_PERICENTER":102.1891,"MEAN_ANOMALY":136.4034,"EPHEMERIS_TYPE":0,"CLASSIFICATION_TYPE":"U","NORAD_CAT_ID":68614,"ELEMENT_SET_NO":999,"REV_AT_EPOCH":411,"BSTAR":8.0008e-6,"MEAN_MOTION_DOT":1.061e-5,"MEAN_MOTION_DDOT":0},{"OBJECT_NAME":"STARLINK-37176","OBJECT_ID":"2026-073P","EPOCH":"2026-04-24T15:32:29.862240","MEAN_MOTION":15.80937773,"ECCENTRICITY":0.00013322,"INCLINATION":97.2841,"RA_OF_ASC_NODE":312.7262,"ARG_OF_PERICENTER":57.0911,"MEAN_ANOMALY":303.0485,"EPHEMERIS_TYPE":0,"CLASSIFICATION_TYPE":"U","NORAD_CAT_ID":68615,"ELEMENT_SET_NO":999,"REV_AT_EPOCH":279,"BSTAR":0.0013423265,"MEAN_MOTION_DOT":0.00266464,"MEAN_MOTION_DDOT":0},{"OBJECT_NAME":"STARLINK-37152","OBJECT_ID":"2026-073Q","EPOCH":"2026-04-25T20:00:01.000224","MEAN_MOTION":15.75111266,"ECCENTRICITY":0.0001493,"INCLINATION":97.2842,"RA_OF_ASC_NODE":313.9404,"ARG_OF_PERICENTER":81.2718,"MEAN_ANOMALY":89.3324,"EPHEMERIS_TYPE":0,"CLASSIFICATION_TYPE":"U","NORAD_CAT_ID":68616,"ELEMENT_SET_NO":999,"REV_AT_EPOCH":328,"BSTAR":0.00067723,"MEAN_MOTION_DOT":0.00101749,"MEAN_MOTION_DDOT":0},{"OBJECT_NAME":"STARLINK-37186","OBJECT_ID":"2026-073R","EPOCH":"2026-04-24T12:28:01.865856","MEAN_MOTION":15.80864407,"ECCENTRICITY":0.00013266,"INCLINATION":97.2837,"RA_OF_ASC_NODE":312.5929,"ARG_OF_PERICENTER":93.7406,"MEAN_ANOMALY":266.4014,"EPHEMERIS_TYPE":0,"CLASSIFICATION_TYPE":"U","NORAD_CAT_ID":68617,"ELEMENT_SET_NO":999,"REV_AT_EPOCH":277,"BSTAR":0.00071424455,"MEAN_MOTION_DOT":0.0013918,"MEAN_MOTION_DDOT":0},{"OBJECT_NAME":"STARLINK-37179","OBJECT_ID":"2026-073S","EPOCH":"2026-04-25T20:00:01.000224","MEAN_MOTION":15.7522371,"ECCENTRICITY":5.5e-5,"INCLINATION":97.2847,"RA_OF_ASC_NODE":313.9722,"ARG_OF_PERICENTER":137.3624,"MEAN_ANOMALY":111.0939,"EPHEMERIS_TYPE":0,"CLASSIFICATION_TYPE":"U","NORAD_CAT_ID":68618,"ELEMENT_SET_NO":999,"REV_AT_EPOCH":411,"BSTAR":0.00025727,"MEAN_MOTION_DOT":0.00038472,"MEAN_MOTION_DDOT":0},{"OBJECT_NAME":"STARLINK-37226","OBJECT_ID":"2026-073T","EPOCH":"2026-04-25T20:00:01.000224","MEAN_MOTION":15.75141564,"ECCENTRICITY":9.62e-5,"INCLINATION":97.288,"RA_OF_ASC_NODE":313.9593,"ARG_OF_PERICENTER":84.4992,"MEAN_ANOMALY":134.0928,"EPHEMERIS_TYPE":0,"CLASSIFICATION_TYPE":"U","NORAD_CAT_ID":68619,"ELEMENT_SET_NO":999,"REV_AT_EPOCH":403,"BSTAR":0.00019718,"MEAN_MOTION_DOT":0.0002932,"MEAN_MOTION_DDOT":0},{"OBJECT_NAME":"STARLINK-37211","OBJECT_ID":"2026-073U","EPOCH":"2026-04-24T00:15:32.947200","MEAN_MOTION":15.80882862,"ECCENTRICITY":0.00015099,"INCLINATION":97.2835,"RA_OF_ASC_NODE":312.0597,"ARG_OF_PERICENTER":67.1109,"MEAN_ANOMALY":293.0319,"EPHEMERIS_TYPE":0,"CLASSIFICATION_TYPE":"U","NORAD_CAT_ID":68620,"ELEMENT_SET_NO":999,"REV_AT_EPOCH":269,"BSTAR":0.0011286665,"MEAN_MOTION_DOT":0.00222329,"MEAN_MOTION_DDOT":0},{"OBJECT_NAME":"STARLINK-37269","OBJECT_ID":"2026-073V","EPOCH":"2026-04-24T12:55:45.188544","MEAN_MOTION":15.75219246,"ECCENTRICITY":0.00012106,"INCLINATION":97.2858,"RA_OF_ASC_NODE":312.5669,"ARG_OF_PERICENTER":73.2136,"MEAN_ANOMALY":286.9262,"EPHEMERIS_TYPE":0,"CLASSIFICATION_TYPE":"U","NORAD_CAT_ID":68621,"ELEMENT_SET_NO":999,"REV_AT_EPOCH":277,"BSTAR":0.000829653,"MEAN_MOTION_DOT":0.00125612,"MEAN_MOTION_DDOT":0},{"OBJECT_NAME":"STARLINK-37252","OBJECT_ID":"2026-073W","EPOCH":"2026-04-25T20:00:01.000224","MEAN_MOTION":15.75176342,"ECCENTRICITY":0.0001361,"INCLINATION":97.2847,"RA_OF_ASC_NODE":313.9557,"ARG_OF_PERICENTER":85.1654,"MEAN_ANOMALY":121.4189,"EPHEMERIS_TYPE":0,"CLASSIFICATION_TYPE":"U","NORAD_CAT_ID":68622,"ELEMENT_SET_NO":999,"REV_AT_EPOCH":403,"BSTAR":-0.00052172,"MEAN_MOTION_DOT":-0.00077204,"MEAN_MOTION_DDOT":0},{"OBJECT_NAME":"STARLINK-37284","OBJECT_ID":"2026-073X","EPOCH":"2026-04-24T18:26:09.128544","MEAN_MOTION":15.80883365,"ECCENTRICITY":0.00012724,"INCLINATION":97.2835,"RA_OF_ASC_NODE":312.8669,"ARG_OF_PERICENTER":89.8601,"MEAN_ANOMALY":270.2813,"EPHEMERIS_TYPE":0,"CLASSIFICATION_TYPE":"U","NORAD_CAT_ID":68623,"ELEMENT_SET_NO":999,"REV_AT_EPOCH":281,"BSTAR":0.00090754371,"MEAN_MOTION_DOT":0.0017783,"MEAN_MOTION_DDOT":0},{"OBJECT_NAME":"STARLINK-37231","OBJECT_ID":"2026-073Y","EPOCH":"2026-04-24T12:52:42.126816","MEAN_MOTION":15.75232335,"ECCENTRICITY":0.0001391,"INCLINATION":97.2856,"RA_OF_ASC_NODE":312.5696,"ARG_OF_PERICENTER":84.5034,"MEAN_ANOMALY":275.639,"EPHEMERIS_TYPE":0,"CLASSIFICATION_TYPE":"U","NORAD_CAT_ID":68624,"ELEMENT_SET_NO":999,"REV_AT_EPOCH":277,"BSTAR":0.00093167134,"MEAN_MOTION_DOT":0.00141418,"MEAN_MOTION_DDOT":0}]
